HORYU-4                 
1 41340U 16012D   20262.23396444  .00000400  00000-0  23489-4 0  9993
2 41340  31.0050 100.9032 0013932 348.8075  11.2249 15.01555802251831
E-ST@R-II               
1 41459U 16025D   20262.97922587  .00001141  00000-0  61552-4 0  9998
2 41459  98.1131  17.8945 0162671 256.8952 101.4069 15.06637452241526
AAUSAT 4                
1 41460U 16025E   20263.03688914  .00001298  00000-0  67143-4 0  9996
2 41460  98.1089  20.6273 0151698 244.2294 114.3201 15.09031607241752
BEESAT-4                
1 41619U 16040W   20263.11365492  .00001084  00000-0  47283-4 0  9997
2 41619  97.3106 320.3974 0010366 200.8936 159.1879 15.24228082223664
CANX-7                  
1 41788U 16059F   20263.20713858  .00005972  00000-0  80172-3 0  9990
2 41788  98.2587 353.5156 0022485   8.2013 351.9590 14.79545731213679
RAVAN                   
1 41849U 16067B   20262.55380661 -.00000400  00000-0 -28124-4 0  9999
2 41849  97.9417  14.0339 0007363 301.1404  58.9095 14.98635598210565
CELTEE 1                
1 41850U 16067C   20262.30132837  .00000070  00000-0  11335-4 0  9991
2 41850  97.9335  11.2237 0007714 302.9483  57.0996 14.97220102210399
OPTICUBE 04             
1 41851U 16067D   20262.84971681  .00000557  00000-0  53793-4 0  9993
2 41851  97.9328  11.3472 0007394 304.4216  55.6306 14.96951308210453
AEROCUBE 8D             
1 41852U 16067E   20262.26456400  .00000495  00000-0  48400-4 0  9997
2 41852  97.9340  10.5957 0008181 308.3596  51.6889 14.96959701210341
AEROCUBE 8C             
1 41853U 16067F   20263.03360694  .00000134  00000-0  17022-4 0  9999
2 41853  97.9325  11.2714 0008863 303.8126  56.2250 14.96917190210451
PROMETHEUS 2-1          
1 41854U 16067G   20263.04927534  .00000762  00000-0  71048-4 0  9998
2 41854  97.9340  11.6767 0008712 302.6215  57.4165 14.97264380210477
PROMETHEUS 2-3          
1 41855U 16067H   20262.98229733  .00000759  00000-0  70744-4 0  9995
2 41855  97.9341  11.6459 0008904 303.2027  56.8339 14.97273311210467
INS-1B                  
1 41954U 17008G   20262.26619661  .00000981  00000-0  42155-4 0  9997
2 41954  97.3461 324.9733 0008269 344.6748  15.4239 15.24983712199518
BGUSAT                  
1 41999U 17008BD  20262.15720720  .00001745  00000-0  66854-4 0  9994
2 41999  97.3586 329.5456 0007282 355.1496   4.9671 15.27846888199102
DIDO-2                  
1 42000U 17008BE  20262.44627500  .00000681  00000-0  30454-4 0  9997
2 42000  97.3467 325.6190 0008293   4.5314 355.5997 15.24619913198933
PEASSS                  
1 42015U 17008BV  20263.14008426  .00000913  00000-0  38499-4 0  9996
2 42015  97.3494 328.0947 0006227   8.8506 351.2841 15.25800028199630
AL-FARABI 1             
1 42016U 17008BW  20263.17363466  .00001033  00000-0  42071-4 0  9993
2 42016  97.3525 329.3314 0006026   8.0874 352.0461 15.26693196199820
NAYIF-1 (EO-88)         
1 42017U 17008BX  20262.42884626  .00001160  00000-0  46876-4 0  9995
2 42017  97.3522 328.6082 0006126   9.9556 350.1803 15.26734909199737
UCLSAT                  
1 42765U 17036A   20263.13888776  .00000830  00000-0  37374-4 0  9991
2 42765  97.2917 314.8264 0012694  60.9831 299.2677 15.23714135180258
LITUANICASAT-2          
1 42768U 17036D   20262.61908741  .00001601  00000-0  67996-4 0  9991
2 42768  97.2979 314.4490 0015761  52.4461 307.8206 15.24389865180038
AALTO-1                 
1 42775U 17036L   20263.14561948  .00000517  00000-0  25596-4 0  9997
2 42775  97.2891 312.3807 0015150  54.7729 305.4923 15.21966813179929
URSA MAIOR              
1 42776U 17036M   20262.66318596  .00000626  00000-0  30196-4 0  9996
2 42776  97.2905 312.2388 0014979  56.0811 304.1848 15.22159868179864
COMPASS 2               
1 42777U 17036N   20262.65222901  .00001242  00000-0  53745-4 0  9990
2 42777  97.2965 314.8617 0013471  54.1779 306.0708 15.24180244179996
DIAMOND RED             
1 42783U 17036U   20262.45397274  .00000763  00000-0  35318-4 0  9994
2 42783  97.2918 313.3309 0013486  65.0374 295.2263 15.22992842179900
PEGASUS                 
1 42784U 17036V   20262.65803222  .00000848  00000-0  38467-4 0  9994
2 42784  97.2923 314.0105 0013307  63.2538 297.0059 15.23393088179960
DIAMOND GREEN           
1 42785U 17036W   20263.10983709  .00000764  00000-0  35354-4 0  9994
2 42785  97.2918 314.0063 0013376  63.6206 296.6402 15.22989373179997
DIAMOND BLUE            
1 42786U 17036X   20262.38626467  .00000765  00000-0  35392-4 0  9992
2 42786  97.2920 313.2983 0013248  66.0938 294.1685 15.22992765179962
NUDTSAT                 
1 42787U 17036Y   20262.96052829  .00001479  00000-0  62334-4 0  9991
2 42787  97.2964 315.9237 0012904  54.0447 306.1984 15.24795509179945
SUCHAI                  
1 42788U 17036Z   20262.38502997  .00001038  00000-0  45667-4 0  9995
2 42788  97.2932 314.4222 0012821  62.5967 297.6573 15.23976549180032
SKCUBE                  
1 42789U 17036AA  20262.37549420  .00000992  00000-0  44011-4 0  9997
2 42789  97.2926 314.2360 0012724  63.0339 297.2197 15.23803676179944
VZLUSAT-1               
1 42790U 17036AB  20262.42548345  .00001334  00000-0  56570-4 0  9994
2 42790  97.2953 315.3956 0012143  60.7888 299.4563 15.24773455180010
ROBUSTA-1B              
1 42792U 17036AD  20262.38317129  .00001038  00000-0  45662-4 0  9996
2 42792  97.2929 314.5245 0012301  63.4006 296.8491 15.24003430179978
CICERO 6                
1 42793U 17036AE  20262.67461298  .00000660  00000-0  30679-4 0  9998
2 42793  97.2902 314.0900 0011690  65.2694 294.9759 15.23284783180054
D-SAT                   
1 42794U 17036AF  20262.64065468  .00000206  00000-0  22970-4 0  9996
2 42794  97.4876 290.6526 0127352  54.4034 306.8973 14.91319636176585
CORVUS BC2              
1 42846U 17042X   20262.65465927 -.00000061  00000-0 -74960-6 0  9995
2 42846  97.5085 141.9436 0008915 336.1492  23.9314 14.92136940173304
CORVUS BC1              
1 42847U 17042Y   20262.64401606 -.00000045  00000-0  83129-6 0  9997
2 42847  97.5087 142.1200 0008552 335.6767  24.4048 14.92239019173306
MIRATA                  
1 43015U 17073C   20262.31675942  .00000678  00000-0  56929-4 0  9996
2 43015  97.7120 170.9866 0254171 105.4889 257.4544 14.79786551152959
MAKERSAT 0              
1 43016U 17073D   20262.30656974  .00000462  00000-0  40500-4 0  9999
2 43016  97.7155 171.1374 0257089 106.8277 256.1302 14.79314756152921
DELLINGR (RBLE)         
1 43021U 98067NJ  20263.14208915  .00014514  00000-0  10719-3 0  9999
2 43021  51.6346 160.2002 0002025  91.3510 268.7720 15.73264749161600
AEROCUBE 7B (OCSD B)    
1 43042U 17071F   20262.64043592  .00002657  00000-0  65943-4 0  9995
2 43042  51.6384 329.0975 0004805  31.8630 328.2646 15.44226425156777
AEROCUBE 7C (OCSD C)    
1 43043U 17071G   20262.64537827  .00002611  00000-0  65033-4 0  9995
2 43043  51.6384 329.1455 0005052  35.5222 324.6100 15.44200806156742
CHEFSAT                 
1 43044U 17071H   20263.16402522  .00004844  00000-0  93767-4 0  9992
2 43044  51.6371 308.1752 0004967  42.8808 317.2567 15.49697691157070
ASGARDIA 1              
1 43049U 17071N   20262.89616962  .00002690  00000-0  66670-4 0  9991
2 43049  51.6395 327.1556 0002863  52.2763 307.8483 15.44211155156783
ISARA                   
1 43050U 17071P   20263.14841368  .00005680  00000-0  11315-3 0  9999
2 43050  51.6355 311.6745 0002942  52.3035 307.8220 15.48487461157015
PROPCUBE 2 (FAUNA)      
1 43052U 17071R   20262.59476099  .00002719  00000-0  66208-4 0  9996
2 43052  51.6389 326.6585 0002845  49.3277 310.7957 15.44711673156760
CORVUS BC3              
1 43118U 18004H   20262.23780248  .00000637  00000-0  29627-4 0  9992
2 43118  97.4366 331.7230 0011990  87.7614 272.4996 15.23491816149122
MICROMAS-2A             
1 43131U 18004W   20262.27187740  .00001517  00000-0  62576-4 0  9997
2 43131  97.4421 333.8313 0010774  86.1550 274.0919 15.25568300149246
SPACEBEE-4              
1 43139U 18004AE  20262.48577242  .00002064  00000-0  80639-4 0  9996
2 43139  97.4463 335.4621 0010086  86.4045 273.8347 15.26990063149358
SPACEBEE-3              
1 43140U 18004AF  20262.30710295  .00002651  00000-0  99731-4 0  9991
2 43140  97.4481 336.1250 0009730  85.6653 274.5698 15.27990535149370
SPACEBEE-2              
1 43141U 18004AG  20262.46356983  .00002951  00000-0  10958-3 0  9995
2 43141  97.4496 336.6025 0009683  84.6406 275.5938 15.28333058149419
SPACEBEE-1              
1 43142U 18004AH  20263.12850735  .00003342  00000-0  12223-3 0  9996
2 43142  97.4498 337.5870 0009598  82.3729 277.8600 15.28737278149523
CICERO 7                
1 43143U 18004AJ  20262.33696230  .00001420  00000-0  58733-4 0  9999
2 43143  97.4399 334.0557 0009032  93.7142 266.5129 15.25584456149274
GOMX-4B                 
1 43196U 18015E   20262.63393070  .00000363  00000-0  17687-4 0  9996
2 43196  97.4504  30.5283 0019832 132.6049 227.6865 15.24438703146096
GOMX-4A                 
1 43197U 18015F   20263.17676104  .00000687  00000-0  30631-4 0  9992
2 43197  97.4494  31.1911 0020218 132.0910 352.6232 15.24632258146190
UBAKUSAT                
1 43467U 98067NQ  20263.14327035  .00035855  00000-0  18131-3 0  9995
2 43467  51.6332 157.7625 0002161 117.8118 242.3104 15.81206810134901
CUBERRT                 
1 43546U 98067NU  20263.12988963  .00017540  00000-0  10088-3 0  9998
2 43546  51.6325 159.2197 0002142 110.9181 249.2049 15.78843983125015
TEMPEST-D               
1 43547U 98067NV  20263.19890449  .00004395  00000-0  51737-4 0  9998
2 43547  51.6360 198.1855 0005304  55.5958 304.5537 15.63776305124188
RAINCUBE                
1 43548U 98067NW  20262.23669975  .00043234  00000-0  22808-3 0  9992
2 43548  51.6302 171.1834 0004607 105.0446 255.1065 15.80181346124902
HALOSAT                 
1 43549U 98067NX  20262.23957655  .00036665  00000-0  20746-3 0  9997
2 43549  51.6343 172.8339 0004648 106.9034 253.2477 15.78711166124445
